RS-40
1 38735U 12041C   23323.95206699  .00000038  00000-0  20370-3 0  9999
2 38735  82.4731 300.9613 0016739 320.8305  39.1562 12.42597843513068
AENEAS
1 38760U          23265.85685185  .00000000  00000-0  15764-2 0    06
2 38760  64.6448 191.4103 0027263 114.7582 355.9422 15.68528680    04
CP5
1 38763U 12048F   23321.48514117 +.00009442 +00000+0 +54608-3 0    12
2 38763  64.6599 237.0791 0094379  96.0404 265.1481 15.09030874544649
METOP-B
1 38771U 12049A   23324.14531778  .00000106  00000-0  68238-4 0  9990
2 38771  98.6591  20.7585 0000842  98.5115 315.8601 14.21509677579700
AAUSAT3
1 39087U 13009B   23324.04593495  .00000638  00000-0  22887-3 0  9990
2 39087  98.3726 155.0759 0012488 147.9086 212.2864 14.37140494562313
STRAND-1
1 39090U 13009E   23323.48947475  .00000358  00000-0  13829-3 0  9997
2 39090  98.3813 152.5873 0009267 155.0040 205.1596 14.35777765562008
RS-43
1 39133U 13015D   23324.07028732  .00003367  00000-0  21466-3 0  9993
2 39133  64.8736  54.3724 0017258 225.3664 134.6052 15.10371004581604
BEESAT-3
1 39135U 13015F   23323.88976534  .00147578  00000-0  10644-2 0  9993
2 39135  64.8441 166.1495 0010512 249.4402 110.5624 15.72789120586129
BEESAT-2
1 39136U 13015G   23323.88720886  .00077935  00000-0  88201-3 0  9995
2 39136  64.8581 182.1682 0019838 254.3629 105.5330 15.61746098585781
TURKSAT-3U
1 39152U 13018C   23324.13139138  .00002152  00000-0  25784-3 0  9995
2 39152  97.8436  48.0306 0014742 335.1339  24.9164 14.85058109571016
CUBEBUG-1
1 39153U 13018D   23323.96288080  .00002280  00000-0  27237-3 0  9994
2 39153  98.0543  81.5544 0015206   2.3811 357.7473 14.85167358570981
ESTCUBE-1
1 39161U 13021C   23324.14627555  .00001412  00000-0  21659-3 0  9990
2 39161  97.8565  31.9281 0009154 180.2361 179.8846 14.75096587566154
CUSAT
1 39266U 13055B   23323.89538647  .00016391  00000-0  33104-3 0  9997
2 39266  80.9715  33.5149 0484717  77.9466 287.5612 14.73454918530109
DANDE
1 39267U 13055C   23323.89876554  .00008233  00000-0  21247-3 0  9991
2 39267  81.0020 121.4676 0607849 290.9199  62.7967 14.42552377522859
ESHAIL-1
1 39233U 13044A   23323.86731632  .00000150  00000-0  00000-0 0  9997
2 39233   0.0521 347.3873 0002051 252.9570 156.0434  1.00274763 37196
ZACUBE-1
1 39417U 13066B   23323.88190568  .00002271  00000-0  25596-3 0  9990
2 39417  97.7074 280.4023 0054556 133.3449 227.2333 14.86494448540318
UNISAT-5
1 39421U 13066F   23324.09749954  .00002791  00000-0  27624-3 0  9999
2 39421  97.5567 298.4752 0029150  14.7563 345.4500 14.92322912542737
TRITON-1
1 39427U 13066M   23324.09062406  .00002590  00000-0  38362-3 0  9993
2 39427  97.8383 244.1784 0107333  38.3278 322.5495 14.72110118535473
DELFI-N3XT
1 39428U 13066N   23323.74987645  .00004852  00000-0  66977-3 0  9992
2 39428  97.8350 243.2476 0108810  49.2978 311.7621 14.74533031535044
GOMX-1
1 39430U 13066Q   23324.14036599  .00001437  00000-0  25232-3 0  9998
2 39430  97.7575 206.0880 0142623 199.0913 160.4913 14.62738931532328
HUMSAT-D
1 39433U 13066T   23323.97481748  .00006274  00000-0  47302-3 0  9997
2 39433  97.4826 316.7184 0018622 283.8387  76.0767 15.02667072544303
VELOX-P2
1 39438U 13066Y   23323.85601772  .00002090  00000-0  25915-3 0  9998
2 39438  97.7624 272.2181 0064244 198.2783 161.6122 14.82273404537992
FIRSTMOVE
1 39439U 13066Z   23323.89897357  .00005755  00000-0  54181-3 0  9997
2 39439  97.7002 285.5103 0054696 118.3507 242.3244 14.93091495539434
CUBEBUG-2
1 39440U 13066AA  23323.79897788  .00002924  00000-0  36898-3 0  9996
2 39440  97.7902 267.7290 0071526 240.1864 119.2224 14.80903293537178
FUNCUBE-1
1 39444U 13066AE  23323.85116871  .00004106  00000-0  43553-3 0  9994
2 39444  97.6936 283.0909 0052945 117.3285 243.3336 14.88574545538785
UWE-3
1 39446U 13066AG  23323.84961320  .00002390  00000-0  28673-3 0  9991
2 39446  97.7554 273.8689 0063067 188.0155 172.0057 14.83544436537490
FIREBIRD-A
1 39463U 13072B   23324.12209735  .00856762  30286-3  30574-2 0  9998
2 39463 120.4139  45.5688 0023437 162.4992 197.6925 15.87985607230397
FIREBIRD-B
1 39464U 13072C   23321.44457168 +.00012132 +00000+0 +73419-3 0    18
2 39464 120.4776  89.3989 0216924 106.0143 256.4923 14.93650529533994
MCUBED-2
1 39469U 13072H   23322.49405566 +.00010148 +00000+0 +61294-3 0    17
2 39469 120.5056  94.6977 0215483 106.7201 255.7623 14.94141889534184
IPEX
1 39471U 13072K   23321.36357636 +.00009210 +00000+0 +62641-3 0    14
2 39471 120.4891  38.1647 0236648  90.9509 271.8669 14.87238788535436
RS-41
1 39492U 13078C   23324.10531442  .00001717  00000-0  17340-3 0  9994
2 39492  82.4167  97.7979 0018894 174.7776 185.3643 14.90369630537268
RS-46
1 39497U 13076E   23324.18320889  .00000025  00000-0  10664-3 0  9999
2 39497  82.4896  34.5687 0012482 346.0314  14.0419 12.43471239449183
RS-47
1 39765U 14028E   23324.12325618  .00000021  00000-0  30805-4 0  9990
2 39765  82.4486 166.7536 0232260  48.7996 313.2878 12.82864907444704
SPROUT
1 39770U 14029E   23324.13776220  .00024660  00000-0  14376-2 0  9995
2 39770  98.0008  97.1505 0005080 164.8256 195.3126 15.11962458515634
UNISAT-6
1 40012U 14033C   23324.04932072  .00002197  00000-0  30536-3 0  9998
2 40012  97.6827 130.6567 0053389 269.7791  89.7302 14.77864600506783
BUGSAT-1
1 40014U 14033E   23324.09400180  .00003451  00000-0  27045-3 0  9990
2 40014  98.1516 350.2397 0035813 112.9396 247.5612 15.01219021514101
AURORA
1 40017U 14033H   23324.07448808  .00002523  00000-0  20699-3 0  9997
2 40017  98.1460 332.3178 0019700 136.2641 224.0146 15.00077492513451
PACE
1 40022U 14033N   23323.83077946  .00003279  00000-0  30937-3 0  9992
2 40022  98.0156 272.2492 0012826 137.8398 222.3810 14.94439050511784
DUCHIFAT-1
1 40021U 14033M   23323.85205956  .00007310  00000-0  57435-3 0  9999
2 40021  98.0750 293.2745 0015416  89.9863 270.3126 15.01115401512514
NCBR1
1 40024U 14033Q   23323.85354103  .00006258  00000-0  52706-3 0  9997
2 40024  98.0508 283.2999 0012502 114.4264 245.8263 14.98532137511703
QB50P1
1 40025U 14033R   23323.83691725  .00004080  00000-0  36933-3 0  9995
2 40025  98.0163 273.7111 0012037 129.2508 230.9782 14.95932332511393
POPSATHIP-1
1 40028U 14033U   23324.08509671  .00004026  00000-0  36972-3 0  9997
2 40028  98.0275 275.5704 0013415 132.3491 227.8867 14.95360684511861
DTUSAT-2
1 40030U 14033W   23323.80897719  .00004328  00000-0  40110-3 0  9996
2 40030  97.9842 266.6333 0011829 127.0040 233.2265 14.94969288511237
QB50P2
1 40032U 14033Y   23323.78343063  .00004338  00000-0  40183-3 0  9994
2 40032  97.9827 266.6224 0011637 129.2704 230.9550 14.94988050511205
ANTELSAT
1 40034U 14033AA  23324.01947286  .00002598  00000-0  35425-3 0  9999
2 40034  97.6794 132.0618 0053325 266.6364  92.8747 14.78528593506805
PERSEUS-M2
1 40037U 14033AD  23324.06999121  .00001370  00000-0  15082-3 0  9996
2 40037  97.9143 249.4993 0013904 161.1364 199.0371 14.89178156511049
PERSEUS-M1
1 40039U 14033AF  23323.78919382  .00001655  00000-0  18219-3 0  9998
2 40039  97.8976 245.8421 0013693 161.3172 198.8550 14.88878483510363
POLYITAN
1 40042U 14033AJ  23323.85729642  .00005419  00000-0  47061-3 0  9997
2 40042  98.0268 276.1220 0013422 122.5854 237.6665 14.97391811511314
TIGRISAT
1 40043U 14033AK  23323.47084397  .00001942  00000-0  27345-3 0  9997
2 40043  97.6745 130.8465 0055635 269.2935  90.1901 14.77352508506337
AISAT
1 40054U 14034B   23323.84400932  .00004807  00000-0  56460-3 0  9991
2 40054  98.3553 163.5077 0011801  82.4096 277.8458 14.85368521506552
CANX-4
1 40055U 14034C   23324.06033578  .00001078  00000-0  16028-3 0  9998
2 40055  98.3938 145.1924 0014375 137.6896 222.5424 14.77116478505559
CANX-5
1 40056U 14034D   23323.86341893  .00001084  00000-0  16109-3 0  9995
2 40056  98.3941 144.9811 0014361 138.5539 221.6761 14.77122118496309
VELOX-1
1 40057U 14034E   23324.10431184  .00002839  00000-0  35266-3 0  9991
2 40057  98.3597 164.2974 0010633  98.5545 261.6873 14.83415385506535
METEOR-M2
1 40069U 14037A   23324.11547651  .00000105  00000-0  67735-4 0  9996
2 40069  98.4286 322.8871 0004667 244.5268 115.5427 14.20843366485798
DX-1
1 40071U 14037C   23324.15584873  .00001293  00000-0  16360-3 0  9996
2 40071  98.3429 222.1802 0009475  82.2233 278.0055 14.83658439506482
UKUBE-1
1 40074U 14037F   23324.00667344  .00003090  00000-0  32507-3 0  9996
2 40074  98.3370 236.7678 0005517  51.8062 308.3650 14.90204922507444
HODOYOSHI-1
1 40299U 14070B   23324.15934743  .00010863  00000-0  28883-3 0  9996
2 40299  97.1738  23.0401 0010956  80.5225 279.7259 15.38347511502741
CHUBUSAT-1
1 40300U 14070C   23324.07894795  .00012388  00000-0  32891-3 0  9990
2 40300  97.1177   5.2666 0015679  96.8196 263.4835 15.38288615502277
TSUBAME
1 40302U 14070E   23324.12015527  .00015313  00000-0  42877-3 0  9992
2 40302  97.1213 330.8197 0026170 156.6673 203.5766 15.36366623500853
GRIFEX
1 40379U 15003D   23323.92635695  .00070075  00000-0  76601-3 0  9992
2 40379  99.0867 300.5990 0057256  87.4464 273.3340 15.61019741487497
EXOCUBE
1 40380U 15003E   23324.15618398  .00029234  00000-0  57640-3 0  9994
2 40380  99.0956 287.3819 0079430 128.3449 232.4967 15.43724073486699
DEORBITSAIL
1 40719U 15032E   23323.87997142  .00003132  00000-0  38748-3 0  9994
2 40719  97.7104 189.3115 0015526 105.2413 255.0519 14.83361780450887
XW-2C
1 40906U 15049H   23324.07788846  .00011507  00000-0  38046-3 0  9998
2 40906  97.4926 332.2413 0009740 344.9443  15.1507 15.31478087452214
XW-2D
1 40907U 15049J   23324.10770048  .00015556  00000-0  46492-3 0  9990
2 40907  97.4896 333.3415 0008166 338.0447  22.0445 15.34643027452347
LILACSAT-2
1 40908U 15049K   23324.09709361  .00005293  00000-0  23381-3 0  9998
2 40908  97.5286 326.9884 0013836  14.9710 345.1932 15.22086312451493
XW-2E
1 40909U 15049L   23324.11897873  .00050761  00000-0  79421-3 0  9994
2 40909  97.4407 341.9296 0003136 280.9668  79.1232 15.53601327453213
